street address,landmark,area,city,state,country,pincode
Ap #324-5397 Semper Av.,Opposite Wildemarsh,,,,,
976-5960 Sociosqu St.,Opposite Wintercourt,,,,,
"P.O. Box 861, 7488 Praesent Avenue",Near Ostcliff,,,,,
"P.O. Box 801, 9697 Ante. Av.",Opp. Courtwall,,,,,
"P.O. Box 541, 9122 Non, St.",Opposite Fairsage,,,,,
436-9051 Lorem. Av.,Opposite Shadowmaple,,,,,
"P.O. Box 150, 7646 Sed, Av.",Near Greensummer,,,,,
"P.O. Box 135, 5967 Lectus, Street",Opposite Osttown,,,,,
"P.O. Box 957, 2070 Eu Ave",Opposite Aelhurst,,,,,
"Ap #106-9892 Non, Avenue",Near Wooddell,,,,,
"P.O. Box 540, 2629 Aliquam Ave",After Deercastle,,,,,
2727 Risus. Ave,Opp. Greenshore,,,,,
3437 Commodo St.,Near Springfox,,,,,
938-165 Vitae Avenue,Opp. Lightkeep,,,,,
Ap #852-5889 Facilisis St.,Opposite Pinepond,,,,,
Ap #223-5225 Euismod Street,After Bluedell,,,,,
Ap #276-9059 Luctus Rd.,Opp. Esterash,,,,,
887-2891 Urna Rd.,Opposite Applecastle,,,,,
7033 Penatibus Rd.,Opp. Springfalcon,,,,,
695-8943 In Rd.,Opposite Whiteelf,,,,,
375-8963 Condimentum. Av.,Opposite Wayhill,,,,,
779-8722 Malesuada Av.,Opposite Foxvale,,,,,
"Ap #931-2356 Purus, Rd.",Opposite Newley,,,,,
"P.O. Box 385, 3830 Molestie Rd.",Opp. Wildespell,,,,,
384-4861 Dapibus Avenue,Opposite Shadowgrass,,,,,
543-5763 Venenatis Av.,Near Woodhollow,,,,,
Ap #448-9530 Pretium Road,Opp. Ashton,,,,,
9720 Euismod St.,After Springbell,,,,,
"P.O. Box 879, 7937 Vel Road",Opp. Mallowcastle,,,,,
3770 Ut Rd.,After Goldwilde,,,,,
9046 Massa Rd.,After Eriport,,,,,
Ap #619-879 Nec Street,Near Springfield,,,,,
Ap #351-4740 Velit. Rd.,Opposite Northfield,,,,,
"P.O. Box 514, 3547 Eu Road",Opposite Fielddale,,,,,
"P.O. Box 889, 2987 Orci, Street",After Shorehall,,,,,
"P.O. Box 615, 3353 Mauris Ave",Near Mallowhedge,,,,,
779-7480 Odio. Avenue,Near Byway,,,,,
"479-7348 Non, Road",Opposite Estercrest,,,,,
661-7446 Hendrerit St.,Opposite Dracborough,,,,,
8498 Aliquam Avenue,Near Deepburn,,,,,
"6764 A, Rd.",After Bluedragon,,,,,
7886 Natoque Road,Near Buttermeadow,,,,,
535-5446 Lorem Street,Opp. Marshfield,,,,,
Ap #544-2092 Nascetur St.,After Raymont,,,,,
Ap #394-9686 Adipiscing Street,Near Janpond,,,,,
Ap #868-6494 Euismod Rd.,Opp. Ericliff,,,,,
"281-3214 Nec, St.",Opposite Pinevale,,,,,
7090 In St.,Opp. Eastmarsh,,,,,
Ap #700-4361 Vestibulum St.,Near Silverash,,,,,
753-9019 Aliquet Av.,After Corburn,,,,,
"5149 At, Avenue",Opp. Crystalwolf,,,,,
"P.O. Box 436, 5934 Cursus. Avenue",Opposite Mistmill,,,,,
Ap #158-5677 Arcu. St.,After Greengate,,,,,
Ap #874-9862 Vitae St.,Opp. Lightfort,,,,,
372 Faucibus Street,Opposite Swynston,,,,,
"Ap #369-7032 Vitae, Avenue",Opposite Deerbush,,,,,
"P.O. Box 175, 9632 Et Street",After Lormont,,,,,
619-5828 Porttitor Street,Near Wolfcliff,,,,,
Ap #974-6532 Quisque Street,After Raycastle,,,,,
2643 Aliquam St.,After Lorhurst,,,,,
811-1449 Ultricies Avenue,After Aldbell,,,,,
"8674 Nec, Ave",Near Stronghaven,,,,,
621-8457 Sit St.,Opposite Blackacre,,,,,
"P.O. Box 530, 5069 Eu Rd.",Opp. Goldcliff,,,,,
Ap #463-3138 Aliquam Av.,After Goldport,,,,,
Ap #502-759 Porta Av.,Opp. Seabeach,,,,,
"P.O. Box 203, 7227 Dolor Rd.",Opposite Glassmerrow,,,,,
8950 Lobortis Av.,Opp. Byburn,,,,,
4502 Faucibus Av.,Opposite Janfort,,,,,
133-8931 Tincidunt St.,Near Esterhall,,,,,
"P.O. Box 183, 7518 Ultrices Av.",Opposite Fayedge,,,,,
"P.O. Box 754, 7076 Non Avenue",Near Lightwyvern,,,,,
Ap #749-1817 Et Rd.,Near Northoak,,,,,
"Ap #444-5575 Iaculis, Ave",Opposite Blackbeech,,,,,
"P.O. Box 701, 5875 Ornare, Street",Opp. Morwick,,,,,
290-2057 Malesuada Rd.,Near Vertsilver,,,,,
839-7065 Malesuada Av.,Near Southmallow,,,,,
"P.O. Box 962, 8040 Ipsum Rd.",Opp. Highwolf,,,,,
Ap #963-9399 Vestibulum Street,Opp. Goldden,,,,,
1665 Malesuada. St.,Opposite Goldhill,,,,,
Ap #376-4538 Nam St.,After Highfield,,,,,
522-6120 Molestie Road,After Moorpond,,,,,
Ap #655-8181 Curae; St.,Opposite Northfalcon,,,,,
542-424 Venenatis Rd.,Opposite Blueby,,,,,
"P.O. Box 477, 4434 Lorem, Rd.",Opposite Deerbarrow,,,,,
"P.O. Box 973, 4653 Fringilla Avenue",Near Coastton,,,,,
"P.O. Box 279, 9025 Id St.",Opposite Silverbush,,,,,
208 Dictum Road,Opp. Rosebay,,,,,
203-5782 Proin Street,Opposite Fayhurst,,,,,
"Ap #390-8325 Aliquet, Ave",After Fairwyn,,,,,
6479 Semper Road,Near Greybank,,,,,
Ap #976-8448 In Road,Opposite Highwater,,,,,
"P.O. Box 185, 8634 Suspendisse St.",After Bydell,,,,,
413-2258 Et Road,Opp. Clearcliff,,,,,
"P.O. Box 223, 9077 Vel Street",Opposite Eastshade,,,,,
Ap #188-1806 Volutpat. Rd.,Near Lightham,,,,,
5642 Arcu. Rd.,Opp. Crystalsilver,,,,,
666 Duis Street,Opp. Merrowmarsh,,,,,
"P.O. Box 691, 7498 Nisl Street",Near Belhedge,,,,,
5933 Velit Rd.,Near Coldbush,,,,,
,,,,,,
,,,,,,
,,,,,,
,,,,,,
,,,,,,
,,,,,,
,,,,,,
,,,,,,
,,,,,,
,,,,,,
,,,,,,
,,,,,,
,,,,,,
,,,,,,
,,,,,,
,,,,,,
,,,,,,
,,,,,,
,,,,,,
,,,,,,
,,,,,,
,,,,,,
,,,,,,
,,,,,,
,,,,,,
,,,,,,
,,,,,,
,,,,,,
,,,,,,
,,,,,,
,,,,,,
,,,,,,
,,,,,,
,,,,,,
,,,,,,
,,,,,,
,,,,,,
,,,,,,
,,,,,,
,,,,,,
,,,,,,
,,,,,,
,,,,,,
,,,,,,
,,,,,,
,,,,,,
,,,,,,
,,,,,,
,,,,,,
,,,,,,
,,,,,,
,,,,,,
,,,,,,
,,,,,,
,,,,,,
,,,,,,
,,,,,,
,,,,,,
,,,,,,
,,,,,,
,,,,,,
,,,,,,
,,,,,,
,,,,,,
,,,,,,
